start=new Date('2023-05-23T00:00:00.000Z').valueOf();
sats=[{"INCLINATION":"53.2164","NORAD_CAT_ID":"52465","TLE_LINE1":"1 52465U 22049Q   23142.78034288  .00008400  00000-0  54499-3 0  9997","TLE_LINE2":"2 52465  53.2164 316.6483 0000852  85.6753 274.4336 15.08854422 58118","ELEMENT_SET_NO":"999","LAUNCH_DATE":"2022-05-06","DECAY_DATE":null,"APOAPSIS":"540.291","FILE":"3914964","REV_AT_EPOCH":"5811","EPOCH":"2023-05-22T18:43:41.624832","BSTAR":"0.00054499000000","TIME_SYSTEM":"UTC","OBJECT_ID":"2022-049Q","RA_OF_ASC_NODE":"316.6483","PERIOD":"95.437","SEMIMAJOR_AXIS":"6917.836","EPHEMERIS_TYPE":"0","REF_FRAME":"TEME","OBJECT_TYPE":"PAYLOAD","CLASSIFICATION_TYPE":"U","MEAN_MOTION_DOT":"0.00008400","COUNTRY_CODE":"US","MEAN_ELEMENT_THEORY":"SGP4","SITE":"AFETR","ARG_OF_PERICENTER":"85.6753","MEAN_MOTION_DDOT":"0.0000000000000","OBJECT_NAME":"STARLINK-3863","RCS_SIZE":"LARGE","MEAN_ANOMALY":"274.4336","GP_ID":"232358619","ECCENTRICITY":"0.00008520","MEAN_MOTION":"15.08854422","PERIAPSIS":"539.112","CENTER_NAME":"EARTH"},{"FILE":"3914964","REV_AT_EPOCH":"5797","EPOCH":"2023-05-22T18:49:33.647808","BSTAR":"0.00004229300000","TIME_SYSTEM":"UTC","INCLINATION":"53.2174","NORAD_CAT_ID":"52466","TLE_LINE1":"1 52466U 22049R   23142.78441722  .00000373  00000-0  42293-4 0  9994","TLE_LINE2":"2 52466  53.2174 326.7220 0000866  86.1370 273.9721 15.08034788 57977","ELEMENT_SET_NO":"999","LAUNCH_DATE":"2022-05-06","DECAY_DATE":null,"APOAPSIS":"542.807","SITE":"AFETR","ARG_OF_PERICENTER":"86.1370","OBJECT_NAME":"STARLINK-3840","MEAN_MOTION_DDOT":"0.0000000000000","RCS_SIZE":"LARGE","MEAN_ANOMALY":"273.9721","GP_ID":"232359869","ECCENTRICITY":"0.00008660","MEAN_MOTION":"15.08034788","PERIAPSIS":"541.608","CENTER_NAME":"EARTH","OBJECT_ID":"2022-049R","RA_OF_ASC_NODE":"326.7220","PERIOD":"95.489","SEMIMAJOR_AXIS":"6920.343","EPHEMERIS_TYPE":"0","REF_FRAME":"TEME","OBJECT_TYPE":"PAYLOAD","CLASSIFICATION_TYPE":"U","MEAN_MOTION_DOT":"0.00000373","COUNTRY_CODE":"US","MEAN_ELEMENT_THEORY":"SGP4"},{"TIME_SYSTEM":"UTC","BSTAR":"0.00017958000000","FILE":"3914964","REV_AT_EPOCH":"5797","EPOCH":"2023-05-22T18:42:21.741120","ELEMENT_SET_NO":"999","LAUNCH_DATE":"2022-05-06","APOAPSIS":"540.343","DECAY_DATE":null,"NORAD_CAT_ID":"52467","INCLINATION":"53.2166","TLE_LINE1":"1 52467U 22049S   23142.77941830  .00002572  00000-0  17958-3 0  9991","TLE_LINE2":"2 52467  53.2166 326.6538 0000924  60.7067 299.4017 15.08853594 57971","ECCENTRICITY":"0.00009240","PERIAPSIS":"539.065","MEAN_MOTION":"15.08853594","CENTER_NAME":"EARTH","SITE":"AFETR","ARG_OF_PERICENTER":"60.7067","RCS_SIZE":"LARGE","MEAN_ANOMALY":"299.4017","OBJECT_NAME":"STARLINK-3873","MEAN_MOTION_DDOT":"0.0000000000000","GP_ID":"232359606","REF_FRAME":"TEME","COUNTRY_CODE":"US","MEAN_MOTION_DOT":"0.00002572","CLASSIFICATION_TYPE":"U","OBJECT_TYPE":"PAYLOAD","MEAN_ELEMENT_THEORY":"SGP4","RA_OF_ASC_NODE":"326.6538","OBJECT_ID":"2022-049S","PERIOD":"95.437","SEMIMAJOR_AXIS":"6917.839","EPHEMERIS_TYPE":"0"},{"EPOCH":"2023-05-22T21:31:55.817184","REV_AT_EPOCH":"5799","FILE":"3914964","BSTAR":"0.00011203000000","TIME_SYSTEM":"UTC","TLE_LINE2":"2 52468  53.2172 326.1234 0000892  71.3089 288.8000 15.08855309 57995","TLE_LINE1":"1 52468U 22049T   23142.89717381  .00001496  00000-0  11203-3 0  9998","INCLINATION":"53.2172","NORAD_CAT_ID":"52468","DECAY_DATE":null,"APOAPSIS":"540.316","LAUNCH_DATE":"2022-05-06","ELEMENT_SET_NO":"999","GP_ID":"232358869","OBJECT_NAME":"STARLINK-3864","MEAN_MOTION_DDOT":"0.0000000000000","RCS_SIZE":"LARGE","MEAN_ANOMALY":"288.8000","ARG_OF_PERICENTER":"71.3089","SITE":"AFETR","CENTER_NAME":"EARTH","MEAN_MOTION":"15.08855309","PERIAPSIS":"539.082","ECCENTRICITY":"0.00008920","EPHEMERIS_TYPE":"0","SEMIMAJOR_AXIS":"6917.834","PERIOD":"95.437","RA_OF_ASC_NODE":"326.1234","OBJECT_ID":"2022-049T","MEAN_ELEMENT_THEORY":"SGP4","OBJECT_TYPE":"PAYLOAD","CLASSIFICATION_TYPE":"U","COUNTRY_CODE":"US","MEAN_MOTION_DOT":"0.00001496","REF_FRAME":"TEME"},{"OBJECT_ID":"2022-049U","RA_OF_ASC_NODE":"326.6865","PERIOD":"95.437","SEMIMAJOR_AXIS":"6917.869","EPHEMERIS_TYPE":"0","REF_FRAME":"TEME","OBJECT_TYPE":"PAYLOAD","CLASSIFICATION_TYPE":"U","MEAN_MOTION_DOT":"0.00000924","COUNTRY_CODE":"US","MEAN_ELEMENT_THEORY":"SGP4","SITE":"AFETR","ARG_OF_PERICENTER":"94.0724","MEAN_MOTION_DDOT":"0.0000000000000","OBJECT_NAME":"STARLINK-3828","MEAN_ANOMALY":"266.0330","RCS_SIZE":"LARGE","GP_ID":"232359119","ECCENTRICITY":"0.00005380","MEAN_MOTION":"15.08843727","PERIAPSIS":"539.362","CENTER_NAME":"EARTH","INCLINATION":"53.2168","NORAD_CAT_ID":"52469","TLE_LINE2":"2 52469  53.2168 326.6865 0000538  94.0724 266.0330 15.08843727 57974","TLE_LINE1":"1 52469U 22049U   23142.77206260  .00000924  00000-0  76101-4 0  9999","ELEMENT_SET_NO":"999","LAUNCH_DATE":"2022-05-06","DECAY_DATE":null,"APOAPSIS":"540.106","FILE":"3914964","REV_AT_EPOCH":"5797","EPOCH":"2023-05-22T18:31:46.208640","BSTAR":"0.00007610100000","TIME_SYSTEM":"UTC"},{"SEMIMAJOR_AXIS":"6917.844","EPHEMERIS_TYPE":"0","OBJECT_ID":"2022-049V","RA_OF_ASC_NODE":"326.1556","PERIOD":"95.437","CLASSIFICATION_TYPE":"U","OBJECT_TYPE":"PAYLOAD","MEAN_MOTION_DOT":"0.00015964","COUNTRY_CODE":"US","MEAN_ELEMENT_THEORY":"SGP4","REF_FRAME":"TEME","OBJECT_NAME":"STARLINK-3859","MEAN_MOTION_DDOT":"0.0000000000000","RCS_SIZE":"LARGE","MEAN_ANOMALY":"286.4184","GP_ID":"232359370","SITE":"AFETR","ARG_OF_PERICENTER":"73.6911","MEAN_MOTION":"15.08851853","PERIAPSIS":"539.062","CENTER_NAME":"EARTH","ECCENTRICITY":"0.00009360","INCLINATION":"53.2157","NORAD_CAT_ID":"52470","TLE_LINE1":"1 52470U 22049V   23142.88982841  .00015964  00000-0  10185-2 0  9997","TLE_LINE2":"2 52470  53.2157 326.1556 0000936  73.6911 286.4184 15.08851853 57993","DECAY_DATE":null,"APOAPSIS":"540.357","ELEMENT_SET_NO":"999","LAUNCH_DATE":"2022-05-06","EPOCH":"2023-05-22T21:21:21.174624","FILE":"3914964","REV_AT_EPOCH":"5799","BSTAR":"0.00101850000000","TIME_SYSTEM":"UTC"},{"GP_ID":"232360106","MEAN_ANOMALY":"265.5583","RCS_SIZE":"LARGE","OBJECT_NAME":"STARLINK-3862","MEAN_MOTION_DDOT":"0.0000000000000","ARG_OF_PERICENTER":"94.5533","SITE":"AFETR","CENTER_NAME":"EARTH","PERIAPSIS":"538.968","MEAN_MOTION":"15.08850271","ECCENTRICITY":"0.00010790","EPHEMERIS_TYPE":"0","SEMIMAJOR_AXIS":"6917.849","PERIOD":"95.437","RA_OF_ASC_NODE":"326.7116","OBJECT_ID":"2022-049W","MEAN_ELEMENT_THEORY":"SGP4","COUNTRY_CODE":"US","MEAN_MOTION_DOT":"0.00006328","CLASSIFICATION_TYPE":"U","OBJECT_TYPE":"PAYLOAD","REF_FRAME":"TEME","EPOCH":"2023-05-22T18:27:51.032160","REV_AT_EPOCH":"5797","FILE":"3914964","TIME_SYSTEM":"UTC","BSTAR":"0.00041518000000","TLE_LINE2":"2 52471  53.2167 326.7116 0001079  94.5533 265.5583 15.08850271 57976","TLE_LINE1":"1 52471U 22049W   23142.76934065  .00006328  00000-0  41518-3 0  9999","NORAD_CAT_ID":"52471","INCLINATION":"53.2167","APOAPSIS":"540.460","DECAY_DATE":null,"LAUNCH_DATE":"2022-05-06","ELEMENT_SET_NO":"999"},{"PERIAPSIS":"539.183","MEAN_MOTION":"15.08850035","CENTER_NAME":"EARTH","ECCENTRICITY":"0.00007680","RCS_SIZE":"LARGE","MEAN_ANOMALY":"286.6982","MEAN_MOTION_DDOT":"0.0000000000000","OBJECT_NAME":"STARLINK-3881","GP_ID":"232358370","SITE":"AFETR","ARG_OF_PERICENTER":"73.4095","MEAN_MOTION_DOT":"0.00005781","COUNTRY_CODE":"US","OBJECT_TYPE":"PAYLOAD","CLASSIFICATION_TYPE":"U","MEAN_ELEMENT_THEORY":"SGP4","REF_FRAME":"TEME","SEMIMAJOR_AXIS":"6917.850","EPHEMERIS_TYPE":"0","OBJECT_ID":"2022-049X","RA_OF_ASC_NODE":"326.1730","PERIOD":"95.437","TIME_SYSTEM":"UTC","BSTAR":"0.00038091000000","EPOCH":"2023-05-22T21:16:02.702496","FILE":"3914964","REV_AT_EPOCH":"5799","APOAPSIS":"540.246","DECAY_DATE":null,"ELEMENT_SET_NO":"999","LAUNCH_DATE":"2022-05-06","NORAD_CAT_ID":"52472","INCLINATION":"53.2157","TLE_LINE1":"1 52472U 22049X   23142.88614239  .00005781  00000-0  38091-3 0  9995","TLE_LINE2":"2 52472  53.2157 326.1730 0000768  73.4095 286.6982 15.08850035 57992"},{"ECCENTRICITY":"0.00010240","PERIAPSIS":"539.002","MEAN_MOTION":"15.08851501","CENTER_NAME":"EARTH","SITE":"AFETR","ARG_OF_PERICENTER":"67.4103","RCS_SIZE":"LARGE","MEAN_ANOMALY":"292.6998","MEAN_MOTION_DDOT":"0.0000000000000","OBJECT_NAME":"STARLINK-3879","GP_ID":"232358620","REF_FRAME":"TEME","COUNTRY_CODE":"US","MEAN_MOTION_DOT":"0.00018312","CLASSIFICATION_TYPE":"U","OBJECT_TYPE":"PAYLOAD","MEAN_ELEMENT_THEORY":"SGP4","RA_OF_ASC_NODE":"326.1388","OBJECT_ID":"2022-049Y","PERIOD":"95.437","SEMIMAJOR_AXIS":"6917.845","EPHEMERIS_TYPE":"0","TIME_SYSTEM":"UTC","BSTAR":"0.00116530000000","FILE":"3914964","REV_AT_EPOCH":"5799","EPOCH":"2023-05-22T21:26:39.246720","ELEMENT_SET_NO":"999","LAUNCH_DATE":"2022-05-06","APOAPSIS":"540.419","DECAY_DATE":null,"NORAD_CAT_ID":"52473","INCLINATION":"53.2158","TLE_LINE2":"2 52473  53.2158 326.1388 0001024  67.4103 292.6998 15.08851501 57995","TLE_LINE1":"1 52473U 22049Y   23142.89350980  .00018312  00000-0  11653-2 0  9995"},{"OBJECT_NAME":"STARLINK-3855","MEAN_MOTION_DDOT":"0.0000000000000","MEAN_ANOMALY":"255.9650","RCS_SIZE":"LARGE","GP_ID":"232359870","SITE":"AFETR","ARG_OF_PERICENTER":"104.1443","MEAN_MOTION":"15.08851488","PERIAPSIS":"539.082","CENTER_NAME":"EARTH","ECCENTRICITY":"0.00009080","SEMIMAJOR_AXIS":"6917.845","EPHEMERIS_TYPE":"0","OBJECT_ID":"2022-049Z","RA_OF_ASC_NODE":"316.6901","PERIOD":"95.437","OBJECT_TYPE":"PAYLOAD","CLASSIFICATION_TYPE":"U","COUNTRY_CODE":"US","MEAN_MOTION_DOT":"0.00003458","MEAN_ELEMENT_THEORY":"SGP4","REF_FRAME":"TEME","EPOCH":"2023-05-22T18:34:28.157664","FILE":"3914964","REV_AT_EPOCH":"5811","BSTAR":"0.00023518000000","TIME_SYSTEM":"UTC","INCLINATION":"53.2161","NORAD_CAT_ID":"52474","TLE_LINE1":"1 52474U 22049Z   23142.77393701  .00003458  00000-0  23518-3 0  9990","TLE_LINE2":"2 52474  53.2161 316.6901 0000908 104.1443 255.9650 15.08851488 58117","DECAY_DATE":null,"APOAPSIS":"540.338","ELEMENT_SET_NO":"999","LAUNCH_DATE":"2022-05-06"}];
